$$SOE
2459580.500000000, A.D. 2022-Jan-01 00:00:00.0000, -5.026611222918838E+08, 1.454332820809597E+08, -6.572368404744891E+07,
2459587.500000000, A.D. 2022-Jan-08 00:00:00.0000, -5.042532683415693E+08, 1.369401010798864E+08, -6.672787504354077E+07,
2459594.500000000, A.D. 2022-Jan-15 00:00:00.0000, -5.056779916220844E+08, 1.284014461301401E+08, -6.770990139318177E+07,
2459601.500000000, A.D. 2022-Jan-22 00:00:00.0000, -5.069341820352434E+08, 1.198199913652881E+08, -6.866935254490244E+07,
2459608.500000000, A.D. 2022-Jan-29 00:00:00.0000, -5.080207478304874E+08, 1.111984410667988E+08, -6.960581834249705E+07,
2459615.500000000, A.D. 2022-Feb-05 00:00:00.0000, -5.089366181908324E+08, 1.025395298844010E+08, -7.051888885753079E+07,
2459622.500000000, A.D. 2022-Feb-12 00:00:00.0000, -5.096807436906025E+08, 9.384602200515194E+07, -7.140815451300988E+07,
2459629.500000000, A.D. 2022-Feb-19 00:00:00.0000, -5.102520959491474E+08, 8.512071163990480E+07, -7.227320618282658E+07,
2459636.500000000, A.D. 2022-Feb-26 00:00:00.0000, -5.106496677924556E+08, 7.636642410302347E+07, -7.311363520587587E+07,
2459643.500000000, A.D. 2022-Mar-05 00:00:00.0000, -5.108724737648014E+08, 6.758601686751413E+07, -7.392903338028130E+07,
2459650.500000000, A.D. 2022-Mar-12 00:00:00.0000, -5.109195507702434E+08, 5.878238052898854E+07, -7.471899296395785E+07,
2459657.500000000, A.D. 2022-Mar-19 00:00:00.0000, -5.107899587749404E+08, 4.995843970566137E+07, -7.548310668640655E+07,
2459664.500000000, A.D. 2022-Mar-26 00:00:00.0000, -5.104827815502573E+08, 4.111715386783805E+07, -7.622096777508116E+07,
2459671.500000000, A.D. 2022-Apr-02 00:00:00.0000, -5.099971273912992E+08, 3.226151804069215E+07, -7.693217000791626E+07,
2459678.500000000, A.D. 2022-Apr-09 00:00:00.0000, -5.093321295411066E+08, 2.339456338484650E+07, -7.761630781727834E+07,
2459685.500000000, A.D. 2022-Apr-16 00:00:00.0000, -5.084869459654473E+08, 1.451935830835278E+07, -7.827297642522128E+07,
2459692.500000000, A.D. 2022-Apr-23 00:00:00.0000, -5.074607597491341E+08, 5.639011193420023E+06, -7.890177180557503E+07,
2459699.500000000, A.D. 2022-Apr-30 00:00:00.0000, -5.062527819869281E+08, -3.243327508620474E+06, -7.950229048559527E+07,
2459706.500000000, A.D. 2022-May-07 00:00:00.0000, -5.048622541098106E+08, -1.212446578825639E+07, -8.007412963030078E+07,
2459713.500000000, A.D. 2022-May-14 00:00:00.0000, -5.032884482592898E+08, -2.100117015666086E+07, -8.061688728900194E+07,
2459720.500000000, A.D. 2022-May-21 00:00:00.0000, -5.015306677421799E+08, -2.987016453516679E+07, -8.113016255582832E+07,
2459727.500000000, A.D. 2022-May-28 00:00:00.0000, -4.995882480471971E+08, -3.872812891622448E+07, -8.161355567923802E+07,
2459734.500000000, A.D. 2022-Jun-04 00:00:00.0000, -4.974605581495115E+08, -4.757169811043841E+07, -8.206666817225824E+07,
2459741.500000000, A.D. 2022-Jun-11 00:00:00.0000, -4.951470019616588E+08, -5.639746057905179E+07, -8.248910293720098E+07,
2459748.500000000, A.D. 2022-Jun-18 00:00:00.0000, -4.926470198949807E+08, -6.520195734032342E+07, -8.288046440786488E+07,
2459755.500000000, A.D. 2022-Jun-25 00:00:00.0000, -4.899600905050352E+08, -7.398168098498423E+07, -8.324035871516871E+07,
2459762.500000000, A.D. 2022-Jul-02 00:00:00.0000, -4.870857320899408E+08, -8.273307486877443E+07, -8.356839389444219E+07,
2459769.500000000, A.D. 2022-Jul-09 00:00:00.0000, -4.840235038544337E+08, -9.145253230756976E+07, -8.386418015626183E+07,
2459776.500000000, A.D. 2022-Jul-16 00:00:00.0000, -4.807730066977418E+08, -1.001363946950971E+08, -8.412733012777653E+07,
2459783.500000000, A.D. 2022-Jul-23 00:00:00.0000, -4.773338858266524E+08, -1.087809484690513E+08, -8.435745885707626E+07,
2459790.500000000, A.D. 2022-Jul-30 00:00:00.0000, -4.737058351137653E+08, -1.173824242837127E+08, -8.455418386335380E+07,
2459797.500000000, A.D. 2022-Aug-06 00:00:00.0000, -4.698885996068310E+08, -1.259369977446112E+08, -8.471712551100361E+07,
2459804.500000000, A.D. 2022-Aug-13 00:00:00.0000, -4.658819770155833E+08, -1.344407889541245E+08, -8.484590740746444E+07,
2459811.500000000, A.D. 2022-Aug-20 00:00:00.0000, -4.616858197479580E+08, -1.428898613759663E+08, -8.494015672232500E+07,
2459818.500000000, A.D. 2022-Aug-27 00:00:00.0000, -4.573000374309773E+08, -1.512802207507893E+08, -8.499950449413720E+07,
2459825.500000000, A.D. 2022-Sep-03 00:00:00.0000, -4.527245996725649E+08, -1.596078141793156E+08, -8.502358595786369E+07,
2459832.500000000, A.D. 2022-Sep-10 00:00:00.0000, -4.479595389784147E+08, -1.678685293550099E+08, -8.501204090045036E+07,
2459839.500000000, A.D. 2022-Sep-17 00:00:00.0000, -4.430049537984960E+08, -1.760581939543268E+08, -8.496451404856935E+07,
2459846.500000000, A.D. 2022-Sep-24 00:00:00.0000, -4.378610116466783E+08, -1.841725752422243E+08, -8.488065549954498E+07,
2459853.500000000, A.D. 2022-Oct-01 00:00:00.0000, -4.325279520574113E+08, -1.922073799224923E+08, -8.476012122074893E+07,
2459860.500000000, A.D. 2022-Oct-08 00:00:00.0000, -4.270060889759195E+08, -2.001582537182791E+08, -8.460257361362354E+07,
2459867.500000000, A.D. 2022-Oct-15 00:00:00.0000, -4.212958135168147E+08, -2.080207794912481E+08, -8.440768196015248E+07,
2459874.500000000, A.D. 2022-Oct-22 00:00:00.0000, -4.153975992750683E+08, -2.157904755916871E+08, -8.417512269047651E+07,
2459881.500000000, A.D. 2022-Oct-29 00:00:00.0000, -4.093120076941779E+08, -2.234627970426944E+08, -8.390457991413307E+07,
2459888.500000000, A.D. 2022-Nov-05 00:00:00.0000, -4.030396913946074E+08, -2.310331368272527E+08, -8.359574618474127E+07,
2459895.500000000, A.D. 2022-Nov-12 00:00:00.0000, -3.965813974282708E+08, -2.384968260216612E+08, -8.324832321530505E+07,
2459902.500000000, A.D. 2022-Nov-19 00:00:00.0000, -3.899379711791119E+08, -2.458491337420365E+08, -8.286202255747914E+07,
2459909.500000000, A.D. 2022-Nov-26 00:00:00.0000, -3.831103606493007E+08, -2.530852673153086E+08, -8.243656630338751E+07,
2459916.500000000, A.D. 2022-Dec-03 00:00:00.0000, -3.760996209675671E+08, -2.602003727006388E+08, -8.197168782847206E+07,
2459923.500000000, A.D. 2022-Dec-10 00:00:00.0000, -3.689069190762678E+08, -2.671895351567632E+08, -8.146713257998888E+07,
2459930.500000000, A.D. 2022-Dec-17 00:00:00.0000, -3.615335385732881E+08, -2.740477801946371E+08, -8.092265891691959E+07,
2459937.500000000, A.D. 2022-Dec-24 00:00:00.0000, -3.539808845988094E+08, -2.807700748963525E+08, -8.033803901782773E+07,
2459944.500000000, A.D. 2022-Dec-31 00:00:00.0000, -3.462504884075344E+08, -2.873513295089258E+08, -7.971305988162574E+07,
2459951.500000000, A.D. 2023-Jan-07 00:00:00.0000, -3.383440115007101E+08, -2.937863983675044E+08, -7.904752435465886E+07,
2459958.500000000, A.D. 2023-Jan-14 00:00:00.0000, -3.302632512804601E+08, -3.000700796689301E+08, -7.834125196370858E+07,
2459965.500000000, A.D. 2023-Jan-21 00:00:00.0000, -3.220101488654847E+08, -3.061971172877527E+08, -7.759407975585546E+07,
2459972.500000000, A.D. 2023-Jan-28 00:00:00.0000, -3.135867953945836E+08, -3.121622048513552E+08, -7.680586349880941E+07,
2459979.500000000, A.D. 2023-Feb-04 00:00:00.0000, -3.049954370201749E+08, -3.179599890674670E+08, -7.597647897597064E+07,
2459986.500000000, A.D. 2023-Feb-11 00:00:00.0000, -2.962384803781162E+08, -3.235850725182896E+08, -7.510582322749095E+07,
2459993.500000000, A.D. 2023-Feb-18 00:00:00.0000, -2.873184985855979E+08, -3.290320167657663E+08, -7.419381579860331E+07,
2460000.500000000, A.D. 2023-Feb-25 00:00:00.0000, -2.782382374908211E+08, -3.342953459524596E+08, -7.324040003233841E+07,
2460007.500000000, A.D. 2023-Mar-04 00:00:00.0000, -2.690006220572469E+08, -3.393695509030461E+08, -7.224554441428235E+07,
2460014.500000000, A.D. 2023-Mar-11 00:00:00.0000, -2.596087628371599E+08, -3.442490937502097E+08, -7.120924397153409E+07,
2460021.500000000, A.D. 2023-Mar-18 00:00:00.0000, -2.500659624686289E+08, -3.489284131587166E+08, -7.013152173332727E+07,
2460028.500000000, A.D. 2023-Mar-25 00:00:00.0000, -2.403757219710361E+08, -3.534019302191952E+08, -6.901243027442412E+07,
2460035.500000000, A.D. 2023-Apr-01 00:00:00.0000, -2.305417463903520E+08, -3.576640546424986E+08, -6.785205334620398E+07,
2460042.500000000, A.D. 2023-Apr-08 00:00:00.0000, -2.205679503822085E+08, -3.617091900534362E+08, -6.665050743647236E+07,
2460049.500000000, A.D. 2023-Apr-15 00:00:00.0000, -2.104584660387194E+08, -3.655317395131261E+08, -6.540794313104792E+07,
2460056.500000000, A.D. 2023-Apr-22 00:00:00.0000, -2.002176511155329E+08, -3.691261143456041E+08, -6.412454668940388E+07,
2460063.500000000, A.D. 2023-Apr-29 00:00:00.0000, -1.898500948878455E+08, -3.724867440398605E+08, -6.280054189791846E+07,
2460070.500000000, A.D. 2023-May-06 00:00:00.0000, -1.793606233566276E+08, -3.756080854679941E+08, -6.143619188962641E+07,
2460077.500000000, A.D. 2023-May-13 00:00:00.0000, -1.687543047388543E+08, -3.784846323319672E+08, -6.003180090877163E+07,
2460084.500000000, A.D. 2023-May-20 00:00:00.0000, -1.580364549603989E+08, -3.811109253463989E+08, -5.858771607575886E+07,
2460091.500000000, A.D. 2023-May-27 00:00:00.0000, -1.472126429065646E+08, -3.834815632006840E+08, -5.710432916588280E+07,
2460098.500000000, A.D. 2023-Jun-03 00:00:00.0000, -1.362886953170208E+08, -3.855912142860345E+08, -5.558207839758620E+07,
2460105.500000000, A.D. 2023-Jun-10 00:00:00.0000, -1.252707012422518E+08, -3.874346292101727E+08, -5.402145022545171E+07,
2460112.500000000, A.D. 2023-Jun-17 00:00:00.0000, -1.141650159102206E+08, -3.890066541651262E+08, -5.242298114199223E+07,
2460119.500000000, A.D. 2023-Jun-24 00:00:00.0000, -1.029782636179327E+08, -3.903022450932348E+08, -5.078725950297379E+07,
2460126.500000000, A.D. 2023-Jul-01 00:00:00.0000, -9.171733932663167E+07, -3.913164818181932E+08, -4.911492732054985E+07,
2460133.500000000, A.D. 2023-Jul-08 00:00:00.0000, -8.038941056342094E+07, -3.920445813062756E+08, -4.740668179076806E+07,
2460140.500000000, A.D. 2023-Jul-15 00:00:00.0000, -6.900192083043851E+07, -3.924819128664258E+08, -4.566327665564346E+07,
$$EOE